{
  "norad_id": 35756,
  "name": "OPTUS D3",
  "history": [
    {
      "epoch": "2026-03-28T20:39:39.292416Z",
      "apogee_km": 35800.22293796903,
      "perigee_km": 35773.74408559004,
      "latitude_deg": 0.35190019025738706,
      "longitude_deg": 156.09318128472688,
      "height_km": 35781.17592571489,
      "semi_major_axis_km": 42165.12051177954,
      "eccentricity": 0.00031399,
      "inclination_deg": 0.8654,
      "raan_deg": 269.8748,
      "arg_perigee_deg": 89.1606,
      "mean_anomaly_deg": 293.2579,
      "mean_motion_rev_day": 1.00270399
    },
    {
      "epoch": "2026-03-29T03:30:27.093024Z",
      "apogee_km": 35800.26355167716,
      "perigee_km": 35773.70795736636,
      "latitude_deg": 0.6908703244065126,
      "longitude_deg": 156.15195435138702,
      "height_km": 35775.57247146561,
      "semi_major_axis_km": 42165.12275452176,
      "eccentricity": 0.0003149,
      "inclination_deg": 0.8646,
      "raan_deg": 269.8728,
      "arg_perigee_deg": 89.6087,
      "mean_anomaly_deg": 35.7906,
      "mean_motion_rev_day": 1.00270391
    },
    {
      "epoch": "2026-03-29T18:42:51.746112Z",
      "apogee_km": 35800.21775904637,
      "perigee_km": 35773.73132258088,
      "latitude_deg": -0.06338034090145413,
      "longitude_deg": 156.08840018670068,
      "height_km": 35788.024224641675,
      "semi_major_axis_km": 42165.111540813625,
      "eccentricity": 0.00031408,
      "inclination_deg": 0.8629,
      "raan_deg": 269.8631,
      "arg_perigee_deg": 90.8294,
      "mean_anomaly_deg": 263.3043,
      "mean_motion_rev_day": 1.00270431
    },
    {
      "epoch": "2026-03-30T10:18:38.721312Z",
      "apogee_km": 35801.4031692425,
      "perigee_km": 35774.92610511848,
      "latitude_deg": -0.6681859561455736,
      "longitude_deg": 156.1450608574107,
      "height_km": 35796.331995714245,
      "semi_major_axis_km": 42166.30163718049,
      "eccentricity": 0.00031396,
      "inclination_deg": 0.863,
      "raan_deg": 269.8805,
      "arg_perigee_deg": 98.6077,
      "mean_anomaly_deg": 130.0924,
      "mean_motion_rev_day": 1.00266186
    },
    {
      "epoch": "2026-03-30T18:52:04.876320Z",
      "apogee_km": 35799.80851830347,
      "perigee_km": 35773.520451169796,
      "latitude_deg": -0.013000461229889036,
      "longitude_deg": 156.08606716414792,
      "height_km": 35787.60494707245,
      "semi_major_axis_km": 42164.801484736636,
      "eccentricity": 0.00031173,
      "inclination_deg": 0.8626,
      "raan_deg": 269.8903,
      "arg_perigee_deg": 93.7043,
      "mean_anomaly_deg": 263.6988,
      "mean_motion_rev_day": 1.00271537
    },
    {
      "epoch": "2026-04-01T19:21:38.805696Z",
      "apogee_km": 35800.031495660434,
      "perigee_km": 35773.59407214593,
      "latitude_deg": 0.12792462957035283,
      "longitude_deg": 156.08048625302771,
      "height_km": 35786.6237462694,
      "semi_major_axis_km": 42164.94978390318,
      "eccentricity": 0.0003135,
      "inclination_deg": 0.8637,
      "raan_deg": 269.9463,
      "arg_perigee_deg": 98.1771,
      "mean_anomaly_deg": 268.5551,
      "mean_motion_rev_day": 1.00271008
    },
    {
      "epoch": "2026-04-02T19:56:51.567360Z",
      "apogee_km": 35799.949115228366,
      "perigee_km": 35772.989066094,
      "latitude_deg": 0.27236072981418896,
      "longitude_deg": 156.07967176954568,
      "height_km": 35784.3967960664,
      "semi_major_axis_km": 42164.60609066119,
      "eccentricity": 0.0003197,
      "inclination_deg": 0.8643,
      "raan_deg": 269.9609,
      "arg_perigee_deg": 100.0404,
      "mean_anomaly_deg": 276.4941,
      "mean_motion_rev_day": 1.00272234
    }
  ]
}